KUIPER-00053            
1 64513U 25134P   25359.49333808 -.00005034  00000+0 -63292-3 0  9994
2 64513  51.9010 191.1847 0002034 113.5506 246.5670 14.79857632 29225
KUIPER-00054            
1 64514U 25134Q   25359.70067568  .00002885  00000+0  40700-3 0  9994
2 64514  51.8974 185.2502 0005919  69.9267 290.2332 14.79978588 29325
KUIPER-00055            
1 64515U 25134R   25359.70523341  .00008458  00000+0  42401-3 0  9993
2 64515  51.8916 167.6639 0002416 231.5288 128.5475 15.18126110 29574
KUIPER-00056            
1 64516U 25134S   25359.76179836  .00000627  00000+0  11129-3 0  9999
2 64516  51.9018 191.0339 0002910  92.5322 267.5974 14.79922495 29259
KUIPER-00057            
1 64517U 25134T   25359.75361308  .00003076  00000+0  43218-3 0  9991
2 64517  51.8976 198.5546 0009761  37.6270 322.5373 14.79944009 29145
KUIPER-00058            
1 64518U 25134U   25359.76060742  .00000395  00000+0  80972-4 0  9991
2 64518  51.8989 192.4422 0004805 100.4881 259.6622 14.79946899 29233
KUIPER-00059            
1 64519U 25134V   25359.69857318  .00012807  00000+0  17033-2 0  9994
2 64519  51.9005 187.7728 0003132 208.9166 151.1623 14.79991352 29299
KUIPER-00060            
1 64520U 25134W   25359.56179728 -.00002681  00000+0 -32277-3 0  9993
2 64520  51.9026 189.4183 0002171 121.6306 238.4868 14.79922377 29243
